OBJECT_NAME,OBJECT_ID,EPOCH,MEAN_MOTION,ECCENTRICITY,INCLINATION,RA_OF_ASC_NODE,ARG_OF_PERICENTER,MEAN_ANOMALY,EPHEMERIS_TYPE,CLASSIFICATION_TYPE,NORAD_CAT_ID,ELEMENT_SET_NO,REV_AT_EPOCH,BSTAR,MEAN_MOTION_DOT,MEAN_MOTION_DDOT
CUTE-1 (CO-55),2003-031E,2026-05-17T18:14:30.273504,14.24315356,.00082833,98.6745,146.7015,274.5188,85.5045,0,U,27844,999,18734,.94640211E-4,.175E-5,0
CUBESAT XI-IV (CO-57),2003-031J,2026-05-18T00:20:47.346432,14.23603269,.0008292,98.6777,146.6897,295.0772,64.9546,0,U,27848,999,18708,.83815E-4,.147E-5,0
CUBESAT XI-V,2005-043F,2026-05-18T03:58:26.078304,14.72543889,.0012909,98.2952,293.1644,303.4766,56.5207,0,U,28895,999,9733,.12922E-3,.769E-5,0
CUTE-1.7+APD II (CO-65),2008-021C,2026-05-18T03:35:28.846752,15.09140414,.0010426,97.8269,118.9543,124.7138,235.5074,0,U,32785,999,98066,.22059E-3,.3437E-4,0
CANX-2,2008-021H,2026-05-18T04:18:47.504736,15.05377493,.0011526,97.8621,117.3840,138.4160,221.7945,0,U,32790,999,98029,.12209E-3,.1687E-4,0
SEEDS II (CO-66),2008-021J,2026-05-17T18:24:47.782080,15.31630012,.00048458,97.7520,134.2408,75.1413,285.0364,0,U,32791,999,98263,.35477782E-3,.1076E-3,0
SWISSCUBE,2009-051B,2026-05-18T04:49:43.026816,14.62417348,.0005837,98.4055,45.5658,316.1214,43.9522,0,U,35932,999,88477,.12997E-3,.608E-5,0
BEESAT-1,2009-051C,2026-05-17T23:45:15.295968,14.61665995,.00046749,98.3984,45.0490,336.1403,23.9580,0,U,35933,999,88477,.11590044E-3,.528E-5,0
ITUPSAT1,2009-051E,2026-05-18T00:32:47.903424,14.60390489,.0007081,98.4069,44.3063,343.1047,16.9915,0,U,35935,999,88433,.11087E-3,.488E-5,0
TISAT 1,2010-035E,2026-05-18T02:51:43.041024,15.30473047,.0003063,98.0707,82.0343,43.4108,316.7372,0,U,36799,999,86310,.46921E-3,.13752E-3,0
AEROCUBE 4.5A,2012-048K,2026-05-18T03:38:56.764032,15.79129633,.0018417,64.6276,135.3037,216.4963,143.4937,0,U,38767,999,36789,.6699E-3,.123137E-2,0
STRAND-1,2013-009E,2026-05-18T01:10:19.350048,14.37143901,.0007896,98.3916,319.0265,328.4541,31.6172,0,U,39090,999,69273,.69049E-4,.162E-5,0
BRITE-AUSTRIA,2013-009F,2026-05-18T01:10:13.239840,14.36529055,.0009615,98.3987,318.2318,336.8248,23.2504,0,U,39091,999,69272,.48741E-4,.1E-5,0
NEE-01 PEGASO,2013-018B,2026-05-17T15:34:44.171040,14.93494868,.00113315,98.1183,280.8011,263.6771,96.3158,0,U,39151,999,70614,.11629188E-3,.1163E-4,0
POPACS 2,2013-055E,2026-05-18T02:35:22.535808,14.90508130,.0418605,80.9910,178.6083,290.5617,65.1160,0,U,39269,999,65873,.16011E-3,.931E-4,0
POPACS 3,2013-055F,2026-05-18T01:59:23.175168,14.55366310,.0554786,81.0018,261.8052,161.5379,200.6875,0,U,39270,999,63417,.29389E-3,.12355E-3,0
ZACUBE-1 (TSHEPISOSAT),2013-066B,2026-05-18T03:26:34.670112,15.00938209,.0041199,97.8123,100.3176,353.8882,6.1833,0,U,39417,999,67622,.24772E-3,.3149E-4,0
WNISAT-1,2013-066H,2026-05-17T21:04:46.024608,14.58021204,.0162332,97.7164,289.1923,327.8019,31.3348,0,U,39423,999,66231,.62057798E-4,.29E-5,0
TRITON-1,2013-066M,2026-05-18T04:12:44.570304,14.81568135,.0089596,97.8273,48.6664,333.2305,26.4297,0,U,39427,999,66964,.31953E-3,.2631E-4,0
GOMX-1,2013-066Q,2026-05-18T03:43:24.674016,14.69330105,.0128873,97.6500,340.5125,173.2938,187.0032,0,U,39430,999,66550,.20088E-3,.1296E-4,0
CUBEBUG-2 (LO-74),2013-066AA,2026-05-18T02:49:26.409792,14.93509519,.0059161,97.8896,86.9790,126.1007,234.5710,0,U,39440,999,67250,.18249E-3,.1926E-4,0
NEE-02 KRYSAOR,2013-066AB,2026-05-17T13:58:53.191776,14.86492155,.0066455,97.8884,77.0216,168.7508,191.5212,0,U,39441,999,67165,.10813E-3,.936E-5,0
FUNCUBE-1 (AO-73),2013-066AE,2026-05-17T11:49:51.301632,15.09062717,.00349222,97.8263,108.3115,310.4162,49.4020,0,U,39444,999,67503,.27395422E-3,.433E-4,0
UWE-3,2013-066AG,2026-05-17T14:23:58.792128,14.96740642,.0050496,97.8682,93.4792,62.4412,298.1926,0,U,39446,999,67300,.23594E-3,.2704E-4,0
BRITE-CA1 (TORONTO),2014-033L,2026-05-17T19:15:08.339904,14.72631779,.00789196,97.9696,267.2984,15.2242,345.1314,0,U,40020,999,63774,.6591747E-4,.387E-5,0
DUCHIFAT-1,2014-033M,2026-05-18T02:18:45.019296,15.58902062,.0006144,98.0495,193.1751,173.8431,186.2900,0,U,40021,999,65105,.73529E-3,.57217E-3,0
NANOSATC-BR1,2014-033Q,2026-05-18T01:46:29.577216,15.30427931,.0001654,98.0738,167.8159,293.1752,66.9312,0,U,40024,999,64937,.38005E-3,.11102E-3,0
QB50P1,2014-033R,2026-05-17T18:17:31.729056,15.17749645,.00078575,98.0972,146.7868,341.5889,18.5058,0,U,40025,999,64841,.29289335E-3,.5841E-4,0
QB50P2,2014-033Y,2026-05-17T18:47:27.137472,15.14735983,.00056718,98.0752,132.7822,281.8283,78.2311,0,U,40032,999,64806,.24954057E-3,.4552E-4,0
PERSEUS-M2,2014-033AD,2026-05-18T03:42:09.999360,14.95414507,.00133,97.9956,88.0889,44.9106,315.3188,0,U,40037,999,64629,.1803E-3,.1934E-4,0
